[Satellite]
VERSION=1.1
NAME=CZ-6A DEB
NICKNAME=CZ-6A DEB
TLE1=1 54455U 22151GF  22342.23505316  .00001357  00000+0  11723-2 0  9993
TLE2=2 54455  98.9519 346.4446 0188210 347.7603  11.9012 13.80318348  3418
STATUS=0
